{"type":"FeatureCollection","features":[{"type":"Feature","properties":{"STATEFP":"51","STATENS":"01779803","GEOIDFQ":"0400000US51","GEOID":"51","STUSPS":"VA","NAME":"Virginia","LSAD":"00","ALAND":102258163252,"AWATER":8528087616},"geometry":{"type":"MultiPolygon","coordinates":[[[[-76.023475,37.289067],[-75.987122,37.368548],[-75.976491,37.444878],[-75.9455743189307,37.5490406581517],[-75.941182,37.563839],[-75.898665,37.635425],[-75.859262,37.703111],[-75.812155,37.749502],[-75.818125,37.791698],[-75.73588,37.816561],[-75.702914,37.849659],[-75.757694,37.903912],[-75.669711,37.950796],[-75.624341,37.994211],[-75.242266,38.027209],[-75.338623,37.894986],[-75.380638,37.851702],[-75.439001,37.869335],[-75.48927,37.832457],[-75.551898,37.748122],[-75.591953,37.663178],[-75.614527,37.609296],[-75.607824,37.560706],[-75.672877,37.483696],[-75.6654179108751,37.4672935154925],[-75.658379,37.451815],[-75.720739,37.373129],[-75.735829,37.335426],[-75.778817,37.297176],[-75.795164,37.247095],[-75.817387,37.193437],[-75.897298,37.118037],[-75.942399,37.089607],[-75.979608,37.100448],[-75.998647,37.188739],[-76.023475,37.289067]]],[[[-83.614513,36.633983],[-83.527112,36.665985],[-83.4609546474638,36.6661310362733],[-83.436508,36.666185],[-83.386099,36.686589],[-83.236399,36.726887],[-83.136395,36.743088],[-83.114693,36.796088],[-83.07559,36.850589],[-83.012587,36.847289],[-82.895445,36.882145],[-82.8837542129764,36.8971301366542],[-82.865192,36.920923],[-82.869183,36.974182],[-82.815748,37.007196],[-82.750715,37.024107],[-82.722254,37.057948],[-82.726294,37.111852],[-82.565275702797,37.1959011068831],[-82.558178,37.199606],[-82.5536395449037,37.2014503744627],[-82.449164,37.243908],[-82.355343,37.26522],[-82.3143704529296,37.2963062518554],[-82.309415,37.300066],[-82.201745,37.375108],[-81.968297,37.537798],[-81.932279,37.511961],[-81.984891,37.454315],[-81.93695,37.41992],[-81.933601,37.389217],[-81.896001,37.331967],[-81.849949,37.285227],[-81.774747,37.274847],[-81.744003,37.242528],[-81.7390550304855,37.2394971038728],[-81.678603,37.202467],[-81.560625,37.206663],[-81.53307,37.223414],[-81.483559,37.250604],[-81.427946,37.271015],[-81.362156,37.337687],[-81.225104,37.234874],[-81.112596,37.278497],[-80.996013,37.299545],[-80.9808452568928,37.3008528161905],[-80.919259,37.306163],[-80.835479,37.334824],[-80.883248,37.383933],[-80.865148,37.419927],[-80.8581481168198,37.4210069067215],[-80.8573585701898,37.421128713999],[-80.836446,37.424355],[-80.770082,37.372363],[-80.664971,37.414215],[-80.544836,37.474695],[-80.4695688905042,37.4290254659927],[-80.46482,37.426144],[-80.39988,37.462314],[-80.291644,37.536505],[-80.28244,37.585481],[-80.223386,37.623185],[-80.2243032443768,37.6239913711709],[-80.292258,37.683732],[-80.290033810255,37.686136458971],[-80.258143,37.720612],[-80.218616,37.783291],[-80.199633,37.827507],[-80.131931,37.8895],[-80.0558115945897,37.9518782200979],[-80.036236,37.96792],[-79.971231,38.044326],[-79.9619822726354,38.0636070994933],[-79.938952,38.111619],[-79.916174,38.184386],[-79.850324,38.233329],[-79.7970135368069,38.2672681211392],[-79.787542,38.273298],[-79.804093,38.313922],[-79.7346,38.356728],[-79.689675,38.431439],[-79.691088,38.463744],[-79.669128,38.510883],[-79.649075,38.591515],[-79.54257,38.553217],[-79.476638,38.457228],[-79.370302,38.427244],[-79.3112960655144,38.418454601455],[-79.297758,38.416438],[-79.23162,38.474041],[-79.2284230027078,38.4797415574873],[-79.201459,38.527821],[-79.154357,38.606518],[-79.092955,38.659517],[-79.088055,38.690115],[-79.057253,38.761413],[-79.023053,38.798613],[-78.999014,38.840074],[-78.869276,38.762991],[-78.821167,38.830982],[-78.772793,38.893742],[-78.681617,38.92584],[-78.620453,38.982601],[-78.561711,39.009007],[-78.532266186557,39.0527645240444],[-78.508132,39.08863],[-78.413943,39.158415],[-78.428697,39.187217],[-78.40498,39.238006],[-78.401813,39.276754],[-78.34048,39.353492],[-78.337133,39.409169],[-78.347087,39.466012],[-78.2291295342185,39.3906638872041],[-78.18737,39.363989],[-78.0331852353666,39.2646248420052],[-78.0331834609342,39.2646236984747],[-78.032841,39.264403],[-77.8283018332673,39.1324224548325],[-77.828157,39.132329],[-77.809125,39.168567],[-77.778068,39.229305],[-77.719519,39.321314],[-77.6776957620787,39.317940817088],[-77.66613,39.317008],[-77.588235,39.301955],[-77.553114,39.279268],[-77.496606,39.251045],[-77.4600656264978,39.2188429438594],[-77.459883,39.218682],[-77.485971,39.185665],[-77.521222,39.161057],[-77.519929,39.120925],[-77.481279,39.105658],[-77.462617,39.076248],[-77.359702,39.062004],[-77.3429916044968,39.0585948705951],[-77.3300377059541,39.0559521134909],[-77.310705,39.052008],[-77.248403,39.026909],[-77.249803,38.985909],[-77.202502,38.96791],[-77.1800356321076,38.9664229861505],[-77.146601,38.96421],[-77.1197891567342,38.9343765552932],[-77.119759,38.934343],[-77.0902,38.904211],[-77.039099,38.868112],[-77.0390663567647,38.8412718895186],[-77.039006,38.791645],[-77.0392398850823,38.7853363256236],[-77.0406725707781,38.7466919304829],[-77.040998,38.737914],[-77.053199,38.709915],[-77.079499,38.709515],[-77.0857847651564,38.7052812818324],[-77.132501,38.673816],[-77.1302,38.635017],[-77.2241458553015,38.6351782749009],[-77.246704,38.635217],[-77.295274,38.562125],[-77.3126042841193,38.5019278005841],[-77.322622,38.467131],[-77.317288,38.383576],[-77.2843464997922,38.3516368165143],[-77.265295,38.333165],[-77.162692,38.345994],[-77.093713,38.352801],[-77.048137,38.360145],[-77.020947,38.329273],[-77.026304,38.302685],[-76.9967912592049,38.2791478339799],[-76.990255,38.273935],[-76.957796,38.243183],[-76.962311,38.214075],[-76.910832,38.197073],[-76.838795,38.163476],[-76.749685,38.162114],[-76.684892,38.156497],[-76.613939,38.148587],[-76.600937,38.110084],[-76.535919,38.069532],[-76.5106939613177,38.0394889278142],[-76.491998,38.017222],[-76.427487,37.977038],[-76.316952,37.934929],[-76.236725,37.889174],[-76.251358,37.833072],[-76.310307,37.794849],[-76.312858,37.720338],[-76.3252991496906,37.6825738854367],[-76.32912,37.670976],[-76.279447,37.618225],[-76.2888778367019,37.587359934104],[-76.29796,37.557636],[-76.2894927971781,37.5360752880088],[-76.273488,37.495321],[-76.250454,37.421886],[-76.24846,37.375135],[-76.275552,37.309964],[-76.366751,37.374495],[-76.393958,37.39594],[-76.4029458753529,37.3926000017912],[-76.437525,37.37975],[-76.38777,37.30767],[-76.36229,37.270226],[-76.3769368097175,37.2494917623633],[-76.394132,37.22515],[-76.3471899289676,37.1896444936553],[-76.3431,37.186551],[-76.311088,37.138495],[-76.293126918301,37.1141637008803],[-76.271262,37.084544],[-76.304272,37.001378],[-76.2809720508166,36.977743727668],[-76.267962,36.964547],[-76.189959,36.931447],[-76.1769475851987,36.928538680155],[-76.087955,36.908647],[-76.043054,36.927547],[-75.996252,36.922047],[-75.961589,36.799995],[-75.921748,36.692051],[-75.890946,36.630753],[-75.867044,36.550754],[-76.02675,36.550553],[-76.1223499470101,36.5505523325541],[-76.313215,36.550551],[-76.3133029682603,36.550551089807],[-76.4914825754723,36.5507329938364],[-76.5419658657183,36.5507845323601],[-76.738329,36.550985],[-76.9157318023497,36.5460897693389],[-76.9160376328562,36.5460813302903],[-76.917318,36.546046],[-77.0716192313025,36.5461127292585],[-77.1643226037182,36.5461528198479],[-77.190175,36.546164],[-77.2987701888118,36.5460390108545],[-77.749706,36.54552],[-77.7671039699267,36.5454424093355],[-77.8997741360467,36.5448507330424],[-78.0462083043603,36.5441976726866],[-78.132911,36.543811],[-78.323718509559,36.5424213915586],[-78.4572778962559,36.5414487083995],[-78.509965,36.541065],[-78.7341228011172,36.5416087348408],[-78.7962739551405,36.5417594935816],[-78.942009,36.542113],[-79.1383358988714,36.5416382700559],[-79.1873146088874,36.5415198366655],[-79.2184554959223,36.5414445361761],[-79.3431159193695,36.5411430999685],[-79.4700566739243,36.5408361497866],[-79.510647,36.540738],[-79.5136476625086,36.5407482050707],[-79.714850811052,36.5414324847413],[-80.027269,36.542495],[-80.0273389151412,36.5424953856142],[-80.0534550433501,36.5426394280866],[-80.295243,36.543973],[-80.431605,36.550219],[-80.4403427430004,36.5506059569159],[-80.6121887881246,36.5582162763804],[-80.704831,36.562319],[-80.840213077246,36.5619284516373],[-80.901661118921,36.561751187168],[-80.901726,36.561751],[-81.061866,36.56702],[-81.176712,36.571926],[-81.3532212246022,36.5762382311564],[-81.499831,36.57982],[-81.677535,36.588117],[-81.6469,36.611918],[-81.8267341480526,36.6147191041614],[-81.922644,36.616213],[-81.934144,36.594213],[-82.1455732705145,36.5945603308341],[-82.173982,36.594607],[-82.2433850052002,36.5948761876654],[-82.2941364201291,36.5950730329585],[-82.487238,36.595822],[-82.609181949399,36.5950896860685],[-82.830433,36.593761],[-82.9844584955724,36.59528996905],[-83.2763,36.598187],[-83.4720935738096,36.5994757320593],[-83.675413,36.600814],[-83.614513,36.633983]]]]}}]}